{"type":"FeatureCollection","source":"Natural Earth 1:110m Admin 0 Countries","sourceUrl":"https://www.naturalearthdata.com/downloads/110m-cultural-vectors/110m-admin-0-countries/","license":"Public domain","features":[{"type":"Feature","properties":{"name":"Tanzania","iso2":"TZ","region":"Africa"},"geometry":{"type":"Polygon","coordinates":[[[33.904,-0.95],[34.073,-1.06],[37.699,-3.097],[37.767,-3.677],[39.202,-4.677],[38.741,-5.909],[38.8,-6.476],[39.44,-6.84],[39.47,-7.1],[39.195,-7.704],[39.252,-8.008],[39.187,-8.486],[39.536,-9.112],[39.95,-10.098],[40.317,-10.317],[40.317,-10.317],[39.521,-10.897],[38.428,-11.285],[37.828,-11.269],[37.471,-11.569],[36.775,-11.595],[36.514,-11.721],[35.312,-11.439],[34.56,-11.52],[34.28,-10.16],[33.941,-9.694],[33.74,-9.417],[32.759,-9.231],[32.192,-8.93],[31.556,-8.762],[31.158,-8.595],[30.74,-8.34],[30.74,-8.34],[30.2,-7.08],[29.62,-6.52],[29.42,-5.94],[29.52,-5.42],[29.34,-4.5],[29.754,-4.452],[30.116,-4.09],[30.506,-3.569],[30.752,-3.359],[30.743,-3.034],[30.528,-2.808],[30.47,-2.414],[30.47,-2.414],[30.758,-2.287],[30.816,-1.699],[30.419,-1.135],[30.77,-1.015],[31.866,-1.027],[33.904,-0.95]]]}},{"type":"Feature","properties":{"name":"Western Sahara","iso2":"EH","region":"Africa"},"geometry":{"type":"Polygon","coordinates":[[[-8.666,27.656],[-8.665,27.589],[-8.684,27.396],[-8.687,25.881],[-11.969,25.933],[-11.937,23.375],[-12.874,23.285],[-13.119,22.771],[-12.929,21.327],[-16.845,21.333],[-17.063,21],[-17.02,21.422],[-17.003,21.421],[-14.751,21.501],[-14.631,21.861],[-14.221,22.31],[-13.891,23.691],[-12.501,24.77],[-12.031,26.031],[-11.718,26.104],[-11.393,26.883],[-10.551,26.991],[-10.189,26.861],[-9.735,26.861],[-9.413,27.088],[-8.795,27.121],[-8.818,27.656],[-8.666,27.656]]]}},{"type":"Feature","properties":{"name":"Democratic Republic of the Congo","iso2":"CD","region":"Africa"},"geometry":{"type":"Polygon","coordinates":[[[29.34,-4.5],[29.52,-5.42],[29.42,-5.94],[29.62,-6.52],[30.2,-7.08],[30.74,-8.34],[30.74,-8.34],[30.346,-8.238],[29.003,-8.407],[28.735,-8.527],[28.45,-9.165],[28.674,-9.606],[28.496,-10.79],[28.372,-11.794],[28.642,-11.972],[29.342,-12.361],[29.616,-12.179],[29.7,-13.257],[28.934,-13.249],[28.524,-12.699],[28.155,-12.272],[27.389,-12.133],[27.164,-11.609],[26.553,-11.924],[25.752,-11.785],[25.418,-11.331],[24.783,-11.239],[24.315,-11.263],[24.257,-10.952],[23.912,-10.927],[23.457,-10.868],[22.837,-11.018],[22.403,-10.993],[22.155,-11.085],[22.209,-9.895],[21.875,-9.524],[21.802,-8.909],[21.949,-8.306],[21.746,-7.92],[21.728,-7.291],[20.515,-7.3],[20.602,-6.939],[20.092,-6.943],[20.038,-7.116],[19.418,-7.155],[19.167,-7.738],[19.017,-7.988],[18.464,-7.847],[18.134,-7.988],[17.473,-8.069],[17.09,-7.546],[16.86,-7.222],[16.573,-6.623],[16.327,-5.877],[13.376,-5.864],[13.025,-5.984],[12.735,-5.966],[12.322,-6.1],[12.182,-5.79],[12.437,-5.684],[12.468,-5.248],[12.632,-4.991],[12.996,-4.781],[13.258,-4.883],[13.6,-4.5],[14.145,-4.51],[14.209,-4.793],[14.583,-4.97],[15.171,-4.344],[15.754,-3.855],[16.006,-3.535],[15.973,-2.712],[16.407,-1.741],[16.865,-1.226],[17.524,-0.744],[17.639,-0.425],[17.664,-0.058],[17.827,0.289],[17.774,0.856],[17.899,1.742],[18.094,2.366],[18.394,2.9],[18.453,3.504],[18.543,4.202],[18.932,4.71],[19.468,5.032],[20.291,4.692],[20.928,4.323],[21.659,4.224],[22.405,4.029],[22.704,4.633],[22.841,4.71],[23.297,4.61],[24.411,5.109],[24.805,4.897],[25.129,4.927],[25.279,5.17],[25.65,5.256],[26.403,5.151],[27.044,5.128],[27.374,5.234],[27.98,4.408],[28.429,4.287],[28.697,4.455],[29.159,4.389],[29.716,4.601],[29.954,4.174],[30.834,3.509],[30.834,3.509],[30.773,2.34],[31.174,2.204],[30.853,1.849],[30.469,1.584],[30.086,1.062],[29.876,0.597],[29.82,-0.205],[29.588,-0.587],[29.579,-1.341],[29.292,-1.62],[29.255,-2.215],[29.117,-2.292],[29.025,-2.839],[29.276,-3.294],[29.34,-4.5]]]}},{"type":"Feature","properties":{"name":"Somalia","iso2":"SO","region":"Africa"},"geometry":{"type":"Polygon","coordinates":[[[41.585,-1.683],[40.993,-0.858],[40.981,2.785],[41.855,3.919],[42.129,4.234],[42.77,4.253],[43.661,4.958],[44.964,5.002],[47.789,8.003],[48.487,8.838],[48.938,9.452],[48.938,9.974],[48.938,10.982],[48.942,11.394],[48.948,11.411],[48.948,11.411],[49.268,11.43],[49.729,11.579],[50.259,11.68],[50.732,12.022],[51.111,12.025],[51.134,11.748],[51.042,11.167],[51.045,10.641],[50.834,10.28],[50.552,9.199],[50.071,8.082],[49.453,6.805],[48.595,5.339],[47.741,4.219],[46.565,2.855],[45.564,2.046],[44.068,1.053],[43.136,0.292],[42.042,-0.919],[41.811,-1.446],[41.585,-1.683]]]}},{"type":"Feature","properties":{"name":"Kenya","iso2":"KE","region":"Africa"},"geometry":{"type":"Polygon","coordinates":[[[39.202,-4.677],[37.767,-3.677],[37.699,-3.097],[34.073,-1.06],[33.904,-0.95],[33.894,0.11],[34.18,0.515],[34.672,1.177],[35.036,1.906],[34.596,3.054],[34.479,3.556],[34.005,4.25],[34.62,4.847],[35.298,5.506],[35.817,5.338],[35.817,4.777],[36.159,4.448],[36.855,4.448],[38.121,3.599],[38.437,3.589],[38.671,3.616],[38.893,3.501],[39.559,3.422],[39.855,3.839],[40.768,4.257],[41.172,3.919],[41.855,3.919],[40.981,2.785],[40.993,-0.858],[41.585,-1.683],[40.885,-2.083],[40.638,-2.5],[40.263,-2.573],[40.121,-3.278],[39.8,-3.681],[39.605,-4.347],[39.202,-4.677]]]}},{"type":"Feature","properties":{"name":"Sudan","iso2":"SD","region":"Africa"},"geometry":{"type":"Polygon","coordinates":[[[24.567,8.229],[23.806,8.666],[23.459,8.954],[23.395,9.265],[23.557,9.681],[23.554,10.089],[22.978,10.714],[22.864,11.142],[22.876,11.385],[22.509,11.679],[22.498,12.26],[22.288,12.646],[21.937,12.588],[22.038,12.955],[22.297,13.372],[22.183,13.786],[22.512,14.093],[22.304,14.327],[22.568,14.944],[23.025,15.681],[23.887,15.611],[23.838,19.58],[23.85,20],[25,20.003],[25,22],[29.02,22],[32.9,22],[36.866,22],[37.189,21.019],[36.969,20.837],[37.115,19.808],[37.482,18.614],[37.863,18.368],[38.41,17.998],[37.904,17.428],[37.167,17.263],[36.853,16.957],[36.754,16.292],[36.323,14.822],[36.43,14.422],[36.27,13.563],[35.864,12.578],[35.26,12.083],[34.832,11.319],[34.731,10.91],[34.257,10.63],[33.962,9.584],[33.975,8.685],[33.963,9.464],[33.825,9.484],[33.842,9.982],[33.722,10.325],[33.207,10.72],[33.087,11.441],[33.207,12.179],[32.743,12.248],[32.675,12.025],[32.074,11.973],[32.314,11.681],[32.4,11.081],[31.851,10.531],[31.353,9.81],[30.838,9.707],[29.997,10.291],[29.619,10.085],[29.516,9.793],[29.001,9.604],[28.967,9.398],[27.971,9.398],[27.834,9.604],[27.113,9.639],[26.752,9.467],[26.477,9.553],[25.962,10.136],[25.791,10.411],[25.07,10.274],[24.795,9.81],[24.537,8.918],[24.194,8.729],[23.887,8.62],[24.567,8.229]]]}},{"type":"Feature","properties":{"name":"Chad","iso2":"TD","region":"Africa"},"geometry":{"type":"Polygon","coordinates":[[[23.838,19.58],[23.887,15.611],[23.025,15.681],[22.568,14.944],[22.304,14.327],[22.512,14.093],[22.183,13.786],[22.297,13.372],[22.038,12.955],[21.937,12.588],[22.288,12.646],[22.498,12.26],[22.509,11.679],[22.876,11.385],[22.864,11.142],[22.231,10.972],[21.724,10.567],[21.001,9.476],[20.06,9.013],[19.094,9.075],[18.812,8.983],[18.911,8.631],[18.39,8.281],[17.965,7.891],[16.706,7.508],[16.456,7.735],[16.291,7.754],[16.106,7.497],[15.279,7.422],[15.436,7.693],[15.121,8.382],[14.98,8.796],[14.544,8.966],[13.954,9.549],[14.171,10.021],[14.627,9.921],[14.909,9.992],[15.468,9.982],[14.924,10.891],[14.96,11.556],[14.893,12.219],[14.496,12.859],[14.596,13.33],[13.954,13.353],[13.957,13.997],[13.54,14.367],[13.972,15.684],[15.248,16.627],[15.3,17.928],[15.686,19.957],[15.903,20.388],[15.487,20.73],[15.471,21.048],[15.097,21.309],[14.851,22.863],[15.861,23.41],[19.849,21.495],[23.838,19.58]]]}},{"type":"Feature","properties":{"name":"South Africa","iso2":"ZA","region":"Africa"},"geometry":{"type":"Polygon","coordinates":[[[16.345,-28.577],[16.824,-28.082],[17.219,-28.356],[17.387,-28.784],[17.836,-28.856],[18.465,-29.045],[19.002,-28.972],[19.895,-28.461],[19.896,-24.768],[20.166,-24.918],[20.759,-25.868],[20.666,-26.477],[20.89,-26.829],[21.606,-26.727],[22.106,-26.28],[22.58,-25.979],[22.824,-25.5],[23.312,-25.269],[23.734,-25.39],[24.211,-25.67],[25.025,-25.72],[25.665,-25.487],[25.766,-25.175],[25.942,-24.696],[26.486,-24.616],[26.786,-24.241],[27.119,-23.574],[28.017,-22.828],[29.432,-22.091],[29.839,-22.102],[30.323,-22.272],[30.66,-22.152],[31.191,-22.252],[31.67,-23.659],[31.931,-24.369],[31.752,-25.484],[31.838,-25.843],[31.333,-25.66],[31.044,-25.731],[30.95,-26.023],[30.677,-26.398],[30.686,-26.744],[31.283,-27.286],[31.868,-27.178],[32.072,-26.734],[32.83,-26.742],[32.58,-27.47],[32.462,-28.301],[32.203,-28.752],[31.521,-29.257],[31.326,-29.402],[30.902,-29.91],[30.623,-30.424],[30.056,-31.14],[28.926,-32.172],[28.22,-32.772],[27.465,-33.227],[26.419,-33.615],[25.91,-33.667],[25.781,-33.945],[25.173,-33.797],[24.678,-33.987],[23.594,-33.794],[22.988,-33.916],[22.574,-33.864],[21.543,-34.259],[20.689,-34.417],[20.071,-34.795],[19.616,-34.819],[19.193,-34.463],[18.855,-34.444],[18.425,-33.998],[18.377,-34.137],[18.244,-33.868],[18.25,-33.281],[17.925,-32.611],[18.248,-32.429],[18.222,-31.662],[17.567,-30.726],[17.064,-29.879],[17.063,-29.876],[16.345,-28.577]],[[28.978,-28.956],[28.542,-28.648],[28.074,-28.851],[27.533,-29.243],[26.999,-29.876],[27.749,-30.645],[28.107,-30.546],[28.291,-30.226],[28.848,-30.07],[29.018,-29.744],[29.325,-29.257],[28.978,-28.956]]]}},{"type":"Feature","properties":{"name":"Lesotho","iso2":"LS","region":"Africa"},"geometry":{"type":"Polygon","coordinates":[[[28.978,-28.956],[29.325,-29.257],[29.018,-29.744],[28.848,-30.07],[28.291,-30.226],[28.107,-30.546],[27.749,-30.645],[26.999,-29.876],[27.533,-29.243],[28.074,-28.851],[28.542,-28.648],[28.978,-28.956]]]}},{"type":"Feature","properties":{"name":"Zimbabwe","iso2":"ZW","region":"Africa"},"geometry":{"type":"Polygon","coordinates":[[[31.191,-22.252],[30.66,-22.152],[30.323,-22.272],[29.839,-22.102],[29.432,-22.091],[28.795,-21.639],[28.021,-21.486],[27.727,-20.852],[27.725,-20.499],[27.297,-20.392],[26.165,-19.293],[25.85,-18.714],[25.649,-18.536],[25.264,-17.737],[26.382,-17.846],[26.707,-17.961],[27.044,-17.938],[27.598,-17.291],[28.468,-16.468],[28.826,-16.39],[28.947,-16.043],[29.517,-15.645],[30.274,-15.508],[30.339,-15.881],[31.173,-15.861],[31.636,-16.072],[31.852,-16.319],[32.328,-16.392],[32.848,-16.713],[32.85,-17.979],[32.655,-18.672],[32.612,-19.419],[32.773,-19.716],[32.66,-20.304],[32.509,-20.395],[32.245,-21.116],[31.191,-22.252]]]}},{"type":"Feature","properties":{"name":"Botswana","iso2":"BW","region":"Africa"},"geometry":{"type":"Polygon","coordinates":[[[29.432,-22.091],[28.017,-22.828],[27.119,-23.574],[26.786,-24.241],[26.486,-24.616],[25.942,-24.696],[25.766,-25.175],[25.665,-25.487],[25.025,-25.72],[24.211,-25.67],[23.734,-25.39],[23.312,-25.269],[22.824,-25.5],[22.58,-25.979],[22.106,-26.28],[21.606,-26.727],[20.89,-26.829],[20.666,-26.477],[20.759,-25.868],[20.166,-24.918],[19.896,-24.768],[19.895,-21.849],[20.881,-21.814],[20.911,-18.252],[21.655,-18.219],[23.197,-17.869],[23.579,-18.281],[24.217,-17.889],[24.521,-17.887],[25.084,-17.662],[25.264,-17.737],[25.649,-18.536],[25.85,-18.714],[26.165,-19.293],[27.297,-20.392],[27.725,-20.499],[27.727,-20.852],[28.021,-21.486],[28.795,-21.639],[29.432,-22.091]]]}},{"type":"Feature","properties":{"name":"Namibia","iso2":"NA","region":"Africa"},"geometry":{"type":"Polygon","coordinates":[[[19.896,-24.768],[19.895,-28.461],[19.002,-28.972],[18.465,-29.045],[17.836,-28.856],[17.387,-28.784],[17.219,-28.356],[16.824,-28.082],[16.345,-28.577],[15.602,-27.821],[15.21,-27.091],[14.99,-26.117],[14.743,-25.393],[14.408,-23.853],[14.386,-22.657],[14.258,-22.111],[13.869,-21.699],[13.352,-20.873],[12.827,-19.673],[12.609,-19.045],[11.795,-18.069],[11.734,-17.302],[12.215,-17.112],[12.814,-16.941],[13.462,-16.971],[14.059,-17.423],[14.21,-17.353],[18.263,-17.31],[18.956,-17.789],[21.377,-17.931],[23.215,-17.523],[24.034,-17.296],[24.682,-17.353],[25.077,-17.579],[25.084,-17.662],[24.521,-17.887],[24.217,-17.889],[23.579,-18.281],[23.197,-17.869],[21.655,-18.219],[20.911,-18.252],[20.881,-21.814],[19.895,-21.849],[19.896,-24.768]]]}},{"type":"Feature","properties":{"name":"Senegal","iso2":"SN","region":"Africa"},"geometry":{"type":"Polygon","coordinates":[[[-16.714,13.595],[-17.126,14.374],[-17.625,14.73],[-17.185,14.919],[-16.701,15.622],[-16.463,16.135],[-16.121,16.456],[-15.624,16.369],[-15.136,16.587],[-14.577,16.598],[-14.1,16.304],[-13.436,16.039],[-12.831,15.304],[-12.171,14.617],[-12.125,13.995],[-11.928,13.422],[-11.553,13.141],[-11.468,12.755],[-11.514,12.443],[-11.658,12.387],[-12.204,12.466],[-12.279,12.354],[-12.499,12.332],[-13.218,12.576],[-13.7,12.586],[-15.548,12.628],[-15.817,12.516],[-16.148,12.548],[-16.677,12.385],[-16.842,13.151],[-15.931,13.13],[-15.691,13.27],[-15.512,13.279],[-15.141,13.51],[-14.712,13.298],[-14.278,13.281],[-13.845,13.505],[-14.047,13.794],[-14.377,13.626],[-14.687,13.63],[-15.082,13.876],[-15.399,13.86],[-15.625,13.624],[-16.714,13.595]]]}},{"type":"Feature","properties":{"name":"Mali","iso2":"ML","region":"Africa"},"geometry":{"type":"Polygon","coordinates":[[[-11.514,12.443],[-11.468,12.755],[-11.553,13.141],[-11.928,13.422],[-12.125,13.995],[-12.171,14.617],[-11.834,14.799],[-11.666,15.388],[-11.349,15.411],[-10.651,15.133],[-10.087,15.33],[-9.7,15.264],[-9.55,15.486],[-5.538,15.502],[-5.315,16.202],[-5.489,16.325],[-5.971,20.641],[-6.454,24.957],[-4.923,24.975],[-1.55,22.793],[1.823,20.611],[2.061,20.142],[2.684,19.856],[3.147,19.694],[3.158,19.057],[4.267,19.155],[4.27,16.852],[3.723,16.184],[3.638,15.568],[2.75,15.41],[1.386,15.324],[1.016,14.968],[0.375,14.929],[-0.266,14.924],[-0.516,15.116],[-1.066,14.974],[-2.001,14.559],[-2.192,14.246],[-2.968,13.798],[-3.104,13.541],[-3.523,13.338],[-4.006,13.472],[-4.28,13.228],[-4.427,12.543],[-5.221,11.714],[-5.198,11.375],[-5.471,10.951],[-5.404,10.371],[-5.817,10.223],[-6.05,10.096],[-6.205,10.524],[-6.494,10.411],[-6.666,10.431],[-6.851,10.139],[-7.623,10.147],[-7.9,10.297],[-8.03,10.207],[-8.335,10.495],[-8.282,10.793],[-8.407,10.909],[-8.62,10.811],[-8.581,11.136],[-8.376,11.394],[-8.786,11.813],[-8.905,12.088],[-9.127,12.308],[-9.328,12.334],[-9.568,12.194],[-9.891,12.06],[-10.165,11.844],[-10.593,11.924],[-10.871,12.178],[-11.037,12.211],[-11.298,12.078],[-11.456,12.077],[-11.514,12.443]]]}},{"type":"Feature","properties":{"name":"Mauritania","iso2":"MR","region":"Africa"},"geometry":{"type":"Polygon","coordinates":[[[-17.063,21],[-16.845,21.333],[-12.929,21.327],[-13.119,22.771],[-12.874,23.285],[-11.937,23.375],[-11.969,25.933],[-8.687,25.881],[-8.684,27.396],[-4.923,24.975],[-6.454,24.957],[-5.971,20.641],[-5.489,16.325],[-5.315,16.202],[-5.538,15.502],[-9.55,15.486],[-9.7,15.264],[-10.087,15.33],[-10.651,15.133],[-11.349,15.411],[-11.666,15.388],[-11.834,14.799],[-12.171,14.617],[-12.831,15.304],[-13.436,16.039],[-14.1,16.304],[-14.577,16.598],[-15.136,16.587],[-15.624,16.369],[-16.121,16.456],[-16.463,16.135],[-16.55,16.674],[-16.271,17.167],[-16.146,18.108],[-16.257,19.097],[-16.378,19.594],[-16.278,20.093],[-16.536,20.568],[-17.063,21]]]}},{"type":"Feature","properties":{"name":"Benin","iso2":"BJ","region":"Africa"},"geometry":{"type":"Polygon","coordinates":[[[2.692,6.259],[1.865,6.142],[1.619,6.832],[1.664,9.129],[1.463,9.335],[1.425,9.825],[1.078,10.176],[0.772,10.471],[0.9,10.997],[1.243,11.111],[1.447,11.548],[1.936,11.641],[2.154,11.94],[2.49,12.233],[2.849,12.236],[3.611,11.66],[3.572,11.328],[3.797,10.735],[3.6,10.332],[3.705,10.063],[3.22,9.444],[2.912,9.138],[2.724,8.507],[2.749,7.871],[2.692,6.259]]]}},{"type":"Feature","properties":{"name":"Niger","iso2":"NE","region":"Africa"},"geometry":{"type":"Polygon","coordinates":[[[14.851,22.863],[15.097,21.309],[15.471,21.048],[15.487,20.73],[15.903,20.388],[15.686,19.957],[15.3,17.928],[15.248,16.627],[13.972,15.684],[13.54,14.367],[13.957,13.997],[13.954,13.353],[14.596,13.33],[14.496,12.859],[14.214,12.802],[14.181,12.484],[13.995,12.462],[13.319,13.556],[13.084,13.596],[12.302,13.037],[11.528,13.329],[10.99,13.387],[10.701,13.247],[10.115,13.277],[9.525,12.851],[9.015,12.827],[7.805,13.344],[7.331,13.098],[6.82,13.115],[6.445,13.493],[5.443,13.866],[4.368,13.747],[4.108,13.531],[3.967,12.956],[3.681,12.553],[3.611,11.66],[2.849,12.236],[2.49,12.233],[2.154,11.94],[2.177,12.625],[1.024,12.852],[0.993,13.336],[0.43,13.989],[0.296,14.444],[0.375,14.929],[1.016,14.968],[1.386,15.324],[2.75,15.41],[3.638,15.568],[3.723,16.184],[4.27,16.852],[4.267,19.155],[5.678,19.601],[8.573,21.566],[12,23.472],[13.581,23.041],[14.144,22.491],[14.851,22.863]]]}},{"type":"Feature","properties":{"name":"Nigeria","iso2":"NG","region":"Africa"},"geometry":{"type":"Polygon","coordinates":[[[2.692,6.259],[2.749,7.871],[2.724,8.507],[2.912,9.138],[3.22,9.444],[3.705,10.063],[3.6,10.332],[3.797,10.735],[3.572,11.328],[3.611,11.66],[3.681,12.553],[3.967,12.956],[4.108,13.531],[4.368,13.747],[5.443,13.866],[6.445,13.493],[6.82,13.115],[7.331,13.098],[7.805,13.344],[9.015,12.827],[9.525,12.851],[10.115,13.277],[10.701,13.247],[10.99,13.387],[11.528,13.329],[12.302,13.037],[13.084,13.596],[13.319,13.556],[13.995,12.462],[14.181,12.484],[14.577,12.085],[14.468,11.905],[14.415,11.572],[13.573,10.799],[13.309,10.16],[13.168,9.641],[12.955,9.418],[12.754,8.718],[12.219,8.306],[12.064,7.8],[11.839,7.397],[11.746,6.981],[11.059,6.644],[10.497,7.055],[10.118,7.039],[9.523,6.453],[9.233,6.444],[8.758,5.48],[8.5,4.772],[7.462,4.412],[7.083,4.465],[6.698,4.241],[5.898,4.262],[5.363,4.888],[5.034,5.612],[4.326,6.271],[3.574,6.258],[2.692,6.259]]]}},{"type":"Feature","properties":{"name":"Cameroon","iso2":"CM","region":"Africa"},"geometry":{"type":"Polygon","coordinates":[[[14.496,12.859],[14.893,12.219],[14.96,11.556],[14.924,10.891],[15.468,9.982],[14.909,9.992],[14.627,9.921],[14.171,10.021],[13.954,9.549],[14.544,8.966],[14.98,8.796],[15.121,8.382],[15.436,7.693],[15.279,7.422],[14.777,6.408],[14.537,6.227],[14.459,5.452],[14.559,5.031],[14.478,4.733],[14.951,4.21],[15.036,3.851],[15.405,3.335],[15.863,3.014],[15.907,2.557],[16.013,2.268],[15.941,1.728],[15.146,1.964],[14.338,2.228],[13.076,2.267],[12.951,2.322],[12.359,2.193],[11.752,2.327],[11.276,2.261],[9.649,2.284],[9.795,3.073],[9.404,3.735],[8.948,3.904],[8.745,4.352],[8.489,4.496],[8.5,4.772],[8.758,5.48],[9.233,6.444],[9.523,6.453],[10.118,7.039],[10.497,7.055],[11.059,6.644],[11.746,6.981],[11.839,7.397],[12.064,7.8],[12.219,8.306],[12.754,8.718],[12.955,9.418],[13.168,9.641],[13.309,10.16],[13.573,10.799],[14.415,11.572],[14.468,11.905],[14.577,12.085],[14.181,12.484],[14.214,12.802],[14.496,12.859]]]}},{"type":"Feature","properties":{"name":"Togo","iso2":"TG","region":"Africa"},"geometry":{"type":"Polygon","coordinates":[[[0.9,10.997],[0.772,10.471],[1.078,10.176],[1.425,9.825],[1.463,9.335],[1.664,9.129],[1.619,6.832],[1.865,6.142],[1.06,5.929],[0.837,6.28],[0.57,6.914],[0.491,7.412],[0.712,8.312],[0.461,8.677],[0.366,9.465],[0.368,10.191],[-0.05,10.707],[0.024,11.019],[0.9,10.997]]]}},{"type":"Feature","properties":{"name":"Ghana","iso2":"GH","region":"Africa"},"geometry":{"type":"Polygon","coordinates":[[[0.024,11.019],[-0.05,10.707],[0.368,10.191],[0.366,9.465],[0.461,8.677],[0.712,8.312],[0.491,7.412],[0.57,6.914],[0.837,6.28],[1.06,5.929],[-0.508,5.343],[-1.064,5.001],[-1.965,4.71],[-2.856,4.994],[-2.811,5.389],[-3.244,6.25],[-2.984,7.38],[-2.562,8.22],[-2.827,9.642],[-2.964,10.395],[-2.94,10.963],[-1.203,11.01],[-0.762,10.937],[-0.439,11.098],[0.024,11.019]]]}},{"type":"Feature","properties":{"name":"Côte d'Ivoire","iso2":"CI","region":"Africa"},"geometry":{"type":"Polygon","coordinates":[[[-8.03,10.207],[-7.9,10.297],[-7.623,10.147],[-6.851,10.139],[-6.666,10.431],[-6.494,10.411],[-6.205,10.524],[-6.05,10.096],[-5.817,10.223],[-5.404,10.371],[-4.955,10.153],[-4.78,9.822],[-4.33,9.611],[-3.98,9.862],[-3.512,9.9],[-2.827,9.642],[-2.562,8.22],[-2.984,7.38],[-3.244,6.25],[-2.811,5.389],[-2.856,4.994],[-3.311,4.984],[-4.009,5.18],[-4.65,5.168],[-5.834,4.994],[-6.529,4.705],[-7.519,4.338],[-7.712,4.365],[-7.635,5.188],[-7.54,5.313],[-7.57,5.707],[-7.994,6.126],[-8.311,6.193],[-8.603,6.468],[-8.385,6.912],[-8.485,7.395],[-8.439,7.686],[-8.281,7.687],[-8.222,8.123],[-8.299,8.316],[-8.203,8.455],[-7.832,8.576],[-8.079,9.376],[-8.31,9.79],[-8.229,10.129],[-8.03,10.207]]]}},{"type":"Feature","properties":{"name":"Guinea","iso2":"GN","region":"Africa"},"geometry":{"type":"Polygon","coordinates":[[[-13.7,12.586],[-13.218,12.576],[-12.499,12.332],[-12.279,12.354],[-12.204,12.466],[-11.658,12.387],[-11.514,12.443],[-11.456,12.077],[-11.298,12.078],[-11.037,12.211],[-10.871,12.178],[-10.593,11.924],[-10.165,11.844],[-9.891,12.06],[-9.568,12.194],[-9.328,12.334],[-9.127,12.308],[-8.905,12.088],[-8.786,11.813],[-8.376,11.394],[-8.581,11.136],[-8.62,10.811],[-8.407,10.909],[-8.282,10.793],[-8.335,10.495],[-8.03,10.207],[-8.229,10.129],[-8.31,9.79],[-8.079,9.376],[-7.832,8.576],[-8.203,8.455],[-8.299,8.316],[-8.222,8.123],[-8.281,7.687],[-8.439,7.686],[-8.722,7.712],[-8.926,7.309],[-9.209,7.314],[-9.403,7.527],[-9.337,7.929],[-9.755,8.541],[-10.017,8.429],[-10.23,8.406],[-10.505,8.349],[-10.494,8.716],[-10.655,8.977],[-10.622,9.268],[-10.839,9.688],[-11.117,10.046],[-11.917,10.047],[-12.15,9.859],[-12.426,9.836],[-12.597,9.62],[-12.712,9.343],[-13.247,8.903],[-13.685,9.495],[-14.074,9.886],[-14.33,10.016],[-14.58,10.214],[-14.693,10.656],[-14.84,10.877],[-15.13,11.04],[-14.686,11.528],[-14.382,11.509],[-14.121,11.677],[-13.901,11.679],[-13.743,11.811],[-13.828,12.143],[-13.719,12.247],[-13.7,12.586]]]}},{"type":"Feature","properties":{"name":"Guinea-Bissau","iso2":"GW","region":"Africa"},"geometry":{"type":"Polygon","coordinates":[[[-16.677,12.385],[-16.148,12.548],[-15.817,12.516],[-15.548,12.628],[-13.7,12.586],[-13.719,12.247],[-13.828,12.143],[-13.743,11.811],[-13.901,11.679],[-14.121,11.677],[-14.382,11.509],[-14.686,11.528],[-15.13,11.04],[-15.664,11.458],[-16.085,11.525],[-16.315,11.807],[-16.309,11.959],[-16.614,12.171],[-16.677,12.385]]]}},{"type":"Feature","properties":{"name":"Liberia","iso2":"LR","region":"Africa"},"geometry":{"type":"Polygon","coordinates":[[[-8.439,7.686],[-8.485,7.395],[-8.385,6.912],[-8.603,6.468],[-8.311,6.193],[-7.994,6.126],[-7.57,5.707],[-7.54,5.313],[-7.635,5.188],[-7.712,4.365],[-7.974,4.356],[-9.005,4.832],[-9.913,5.594],[-10.765,6.141],[-11.439,6.786],[-11.2,7.106],[-11.147,7.397],[-10.696,7.939],[-10.23,8.406],[-10.017,8.429],[-9.755,8.541],[-9.337,7.929],[-9.403,7.527],[-9.209,7.314],[-8.926,7.309],[-8.722,7.712],[-8.439,7.686]]]}},{"type":"Feature","properties":{"name":"Sierra Leone","iso2":"SL","region":"Africa"},"geometry":{"type":"Polygon","coordinates":[[[-13.247,8.903],[-12.712,9.343],[-12.597,9.62],[-12.426,9.836],[-12.15,9.859],[-11.917,10.047],[-11.117,10.046],[-10.839,9.688],[-10.622,9.268],[-10.655,8.977],[-10.494,8.716],[-10.505,8.349],[-10.23,8.406],[-10.696,7.939],[-11.147,7.397],[-11.2,7.106],[-11.439,6.786],[-11.708,6.86],[-12.428,7.263],[-12.949,7.799],[-13.124,8.164],[-13.247,8.903]]]}},{"type":"Feature","properties":{"name":"Burkina Faso","iso2":"BF","region":"Africa"},"geometry":{"type":"Polygon","coordinates":[[[-5.404,10.371],[-5.471,10.951],[-5.198,11.375],[-5.221,11.714],[-4.427,12.543],[-4.28,13.228],[-4.006,13.472],[-3.523,13.338],[-3.104,13.541],[-2.968,13.798],[-2.192,14.246],[-2.001,14.559],[-1.066,14.974],[-0.516,15.116],[-0.266,14.924],[0.375,14.929],[0.296,14.444],[0.43,13.989],[0.993,13.336],[1.024,12.852],[2.177,12.625],[2.154,11.94],[1.936,11.641],[1.447,11.548],[1.243,11.111],[0.9,10.997],[0.024,11.019],[-0.439,11.098],[-0.762,10.937],[-1.203,11.01],[-2.94,10.963],[-2.964,10.395],[-2.827,9.642],[-3.512,9.9],[-3.98,9.862],[-4.33,9.611],[-4.78,9.822],[-4.955,10.153],[-5.404,10.371]]]}},{"type":"Feature","properties":{"name":"Central African Republic","iso2":"CF","region":"Africa"},"geometry":{"type":"Polygon","coordinates":[[[27.374,5.234],[27.044,5.128],[26.403,5.151],[25.65,5.256],[25.279,5.17],[25.129,4.927],[24.805,4.897],[24.411,5.109],[23.297,4.61],[22.841,4.71],[22.704,4.633],[22.405,4.029],[21.659,4.224],[20.928,4.323],[20.291,4.692],[19.468,5.032],[18.932,4.71],[18.543,4.202],[18.453,3.504],[17.81,3.56],[17.133,3.728],[16.537,3.198],[16.013,2.268],[15.907,2.557],[15.863,3.014],[15.405,3.335],[15.036,3.851],[14.951,4.21],[14.478,4.733],[14.559,5.031],[14.459,5.452],[14.537,6.227],[14.777,6.408],[15.279,7.422],[16.106,7.497],[16.291,7.754],[16.456,7.735],[16.706,7.508],[17.965,7.891],[18.39,8.281],[18.911,8.631],[18.812,8.983],[19.094,9.075],[20.06,9.013],[21.001,9.476],[21.724,10.567],[22.231,10.972],[22.864,11.142],[22.978,10.714],[23.554,10.089],[23.557,9.681],[23.395,9.265],[23.459,8.954],[23.806,8.666],[24.567,8.229],[25.115,7.825],[25.124,7.5],[25.797,6.979],[26.213,6.547],[26.466,5.947],[27.213,5.551],[27.374,5.234]]]}},{"type":"Feature","properties":{"name":"Republic of the Congo","iso2":"CG","region":"Africa"},"geometry":{"type":"Polygon","coordinates":[[[18.453,3.504],[18.394,2.9],[18.094,2.366],[17.899,1.742],[17.774,0.856],[17.827,0.289],[17.664,-0.058],[17.639,-0.425],[17.524,-0.744],[16.865,-1.226],[16.407,-1.741],[15.973,-2.712],[16.006,-3.535],[15.754,-3.855],[15.171,-4.344],[14.583,-4.97],[14.209,-4.793],[14.145,-4.51],[13.6,-4.5],[13.258,-4.883],[12.996,-4.781],[12.621,-4.438],[12.319,-4.606],[11.915,-5.038],[11.094,-3.979],[11.855,-3.427],[11.478,-2.766],[11.821,-2.514],[12.496,-2.392],[12.575,-1.949],[13.11,-2.429],[13.992,-2.471],[14.299,-1.998],[14.425,-1.333],[14.316,-0.553],[13.843,0.039],[14.276,1.197],[14.027,1.396],[13.283,1.314],[13.003,1.831],[13.076,2.267],[14.338,2.228],[15.146,1.964],[15.941,1.728],[16.013,2.268],[16.537,3.198],[17.133,3.728],[17.81,3.56],[18.453,3.504]]]}},{"type":"Feature","properties":{"name":"Gabon","iso2":"GA","region":"Africa"},"geometry":{"type":"Polygon","coordinates":[[[11.276,2.261],[11.752,2.327],[12.359,2.193],[12.951,2.322],[13.076,2.267],[13.003,1.831],[13.283,1.314],[14.027,1.396],[14.276,1.197],[13.843,0.039],[14.316,-0.553],[14.425,-1.333],[14.299,-1.998],[13.992,-2.471],[13.11,-2.429],[12.575,-1.949],[12.496,-2.392],[11.821,-2.514],[11.478,-2.766],[11.855,-3.427],[11.094,-3.979],[10.066,-2.969],[9.405,-2.144],[8.798,-1.111],[8.83,-0.779],[9.048,-0.459],[9.291,0.269],[9.493,1.01],[9.83,1.068],[11.285,1.058],[11.276,2.261]]]}},{"type":"Feature","properties":{"name":"Equatorial Guinea","iso2":"GQ","region":"Africa"},"geometry":{"type":"Polygon","coordinates":[[[9.649,2.284],[11.276,2.261],[11.285,1.058],[9.83,1.068],[9.493,1.01],[9.306,1.161],[9.649,2.284]]]}},{"type":"Feature","properties":{"name":"Zambia","iso2":"ZM","region":"Africa"},"geometry":{"type":"Polygon","coordinates":[[[30.74,-8.34],[31.158,-8.595],[31.556,-8.762],[32.192,-8.93],[32.759,-9.231],[33.231,-9.677],[33.486,-10.526],[33.315,-10.797],[33.114,-11.607],[33.306,-12.436],[32.992,-12.784],[32.688,-13.713],[33.214,-13.972],[30.179,-14.796],[30.274,-15.508],[29.517,-15.645],[28.947,-16.043],[28.826,-16.39],[28.468,-16.468],[27.598,-17.291],[27.044,-17.938],[26.707,-17.961],[26.382,-17.846],[25.264,-17.737],[25.084,-17.662],[25.077,-17.579],[24.682,-17.353],[24.034,-17.296],[23.215,-17.523],[22.562,-16.898],[21.888,-16.08],[21.934,-12.898],[24.016,-12.911],[23.931,-12.566],[24.08,-12.191],[23.904,-11.722],[24.018,-11.237],[23.912,-10.927],[24.257,-10.952],[24.315,-11.263],[24.783,-11.239],[25.418,-11.331],[25.752,-11.785],[26.553,-11.924],[27.164,-11.609],[27.389,-12.133],[28.155,-12.272],[28.524,-12.699],[28.934,-13.249],[29.7,-13.257],[29.616,-12.179],[29.342,-12.361],[28.642,-11.972],[28.372,-11.794],[28.496,-10.79],[28.674,-9.606],[28.45,-9.165],[28.735,-8.527],[29.003,-8.407],[30.346,-8.238],[30.74,-8.34]]]}},{"type":"Feature","properties":{"name":"Malawi","iso2":"MW","region":"Africa"},"geometry":{"type":"Polygon","coordinates":[[[32.759,-9.231],[33.74,-9.417],[33.941,-9.694],[34.28,-10.16],[34.56,-11.52],[34.28,-12.28],[34.56,-13.58],[34.907,-13.565],[35.268,-13.888],[35.687,-14.611],[35.772,-15.897],[35.339,-16.107],[35.034,-16.801],[34.381,-16.184],[34.307,-15.479],[34.518,-15.014],[34.46,-14.613],[34.065,-14.36],[33.79,-14.452],[33.214,-13.972],[32.688,-13.713],[32.992,-12.784],[33.306,-12.436],[33.114,-11.607],[33.315,-10.797],[33.486,-10.526],[33.231,-9.677],[32.759,-9.231]]]}},{"type":"Feature","properties":{"name":"Mozambique","iso2":"MZ","region":"Africa"},"geometry":{"type":"Polygon","coordinates":[[[34.56,-11.52],[35.312,-11.439],[36.514,-11.721],[36.775,-11.595],[37.471,-11.569],[37.828,-11.269],[38.428,-11.285],[39.521,-10.897],[40.317,-10.317],[40.317,-10.317],[40.317,-10.317],[40.478,-10.765],[40.437,-11.762],[40.561,-12.639],[40.6,-14.202],[40.775,-14.692],[40.477,-15.406],[40.089,-16.101],[39.453,-16.721],[38.538,-17.101],[37.411,-17.586],[36.281,-18.66],[35.896,-18.842],[35.198,-19.553],[34.786,-19.784],[34.702,-20.497],[35.176,-21.254],[35.373,-21.841],[35.386,-22.14],[35.563,-22.09],[35.534,-23.071],[35.372,-23.535],[35.607,-23.707],[35.459,-24.123],[35.041,-24.478],[34.216,-24.816],[33.013,-25.358],[32.575,-25.727],[32.66,-26.149],[32.916,-26.216],[32.83,-26.742],[32.072,-26.734],[31.986,-26.292],[31.838,-25.843],[31.752,-25.484],[31.931,-24.369],[31.67,-23.659],[31.191,-22.252],[32.245,-21.116],[32.509,-20.395],[32.66,-20.304],[32.773,-19.716],[32.612,-19.419],[32.655,-18.672],[32.85,-17.979],[32.848,-16.713],[32.328,-16.392],[31.852,-16.319],[31.636,-16.072],[31.173,-15.861],[30.339,-15.881],[30.274,-15.508],[30.179,-14.796],[33.214,-13.972],[33.79,-14.452],[34.065,-14.36],[34.46,-14.613],[34.518,-15.014],[34.307,-15.479],[34.381,-16.184],[35.034,-16.801],[35.339,-16.107],[35.772,-15.897],[35.687,-14.611],[35.268,-13.888],[34.907,-13.565],[34.56,-13.58],[34.28,-12.28],[34.56,-11.52]]]}},{"type":"Feature","properties":{"name":"Kingdom of eSwatini","iso2":"SZ","region":"Africa"},"geometry":{"type":"Polygon","coordinates":[[[32.072,-26.734],[31.868,-27.178],[31.283,-27.286],[30.686,-26.744],[30.677,-26.398],[30.95,-26.023],[31.044,-25.731],[31.333,-25.66],[31.838,-25.843],[31.986,-26.292],[32.072,-26.734]]]}},{"type":"Feature","properties":{"name":"Angola","iso2":"AO","region":"Africa"},"geometry":{"type":"MultiPolygon","coordinates":[[[[12.996,-4.781],[12.632,-4.991],[12.468,-5.248],[12.437,-5.684],[12.182,-5.79],[11.915,-5.038],[12.319,-4.606],[12.621,-4.438],[12.996,-4.781]]],[[[12.322,-6.1],[12.735,-5.966],[13.025,-5.984],[13.376,-5.864],[16.327,-5.877],[16.573,-6.623],[16.86,-7.222],[17.09,-7.546],[17.473,-8.069],[18.134,-7.988],[18.464,-7.847],[19.017,-7.988],[19.167,-7.738],[19.418,-7.155],[20.038,-7.116],[20.092,-6.943],[20.602,-6.939],[20.515,-7.3],[21.728,-7.291],[21.746,-7.92],[21.949,-8.306],[21.802,-8.909],[21.875,-9.524],[22.209,-9.895],[22.155,-11.085],[22.403,-10.993],[22.837,-11.018],[23.457,-10.868],[23.912,-10.927],[24.018,-11.237],[23.904,-11.722],[24.08,-12.191],[23.931,-12.566],[24.016,-12.911],[21.934,-12.898],[21.888,-16.08],[22.562,-16.898],[23.215,-17.523],[21.377,-17.931],[18.956,-17.789],[18.263,-17.31],[14.21,-17.353],[14.059,-17.423],[13.462,-16.971],[12.814,-16.941],[12.215,-17.112],[11.734,-17.302],[11.64,-16.673],[11.779,-15.794],[12.124,-14.878],[12.176,-14.449],[12.5,-13.548],[12.738,-13.138],[13.313,-12.484],[13.634,-12.039],[13.739,-11.298],[13.686,-10.731],[13.387,-10.374],[13.121,-9.767],[12.875,-9.167],[12.929,-8.959],[13.236,-8.563],[12.933,-7.597],[12.728,-6.927],[12.227,-6.294],[12.322,-6.1]]]]}},{"type":"Feature","properties":{"name":"Burundi","iso2":"BI","region":"Africa"},"geometry":{"type":"Polygon","coordinates":[[[30.47,-2.414],[30.528,-2.808],[30.743,-3.034],[30.752,-3.359],[30.506,-3.569],[30.116,-4.09],[29.754,-4.452],[29.34,-4.5],[29.276,-3.294],[29.025,-2.839],[29.632,-2.918],[29.938,-2.348],[30.47,-2.414]]]}},{"type":"Feature","properties":{"name":"Madagascar","iso2":"MG","region":"Africa"},"geometry":{"type":"Polygon","coordinates":[[[49.544,-12.47],[49.809,-12.895],[50.057,-13.556],[50.217,-14.759],[50.477,-15.227],[50.377,-15.706],[50.2,-16],[49.861,-15.414],[49.673,-15.71],[49.863,-16.451],[49.775,-16.875],[49.499,-17.106],[49.436,-17.953],[49.042,-19.119],[48.549,-20.497],[47.931,-22.392],[47.548,-23.782],[47.096,-24.942],[46.282,-25.178],[45.41,-25.601],[44.834,-25.346],[44.04,-24.988],[43.764,-24.461],[43.698,-23.574],[43.346,-22.777],[43.254,-22.057],[43.433,-21.336],[43.894,-21.163],[43.896,-20.83],[44.374,-20.072],[44.464,-19.435],[44.232,-18.962],[44.043,-18.331],[43.963,-17.41],[44.312,-16.85],[44.447,-16.216],[44.945,-16.179],[45.503,-15.974],[45.873,-15.793],[46.312,-15.78],[46.882,-15.21],[47.705,-14.594],[48.005,-14.091],[47.869,-13.664],[48.294,-13.784],[48.845,-13.089],[48.864,-12.488],[49.195,-12.041],[49.544,-12.47]]]}},{"type":"Feature","properties":{"name":"The Gambia","iso2":"GM","region":"Africa"},"geometry":{"type":"Polygon","coordinates":[[[-16.714,13.595],[-15.625,13.624],[-15.399,13.86],[-15.082,13.876],[-14.687,13.63],[-14.377,13.626],[-14.047,13.794],[-13.845,13.505],[-14.278,13.281],[-14.712,13.298],[-15.141,13.51],[-15.512,13.279],[-15.691,13.27],[-15.931,13.13],[-16.842,13.151],[-16.714,13.595]]]}},{"type":"Feature","properties":{"name":"Tunisia","iso2":"TN","region":"Africa"},"geometry":{"type":"Polygon","coordinates":[[[9.482,30.308],[9.056,32.103],[8.439,32.506],[8.43,32.748],[7.613,33.344],[7.524,34.097],[8.141,34.655],[8.376,35.48],[8.218,36.433],[8.421,36.946],[9.51,37.35],[10.21,37.23],[10.181,36.724],[11.029,37.092],[11.1,36.9],[10.6,36.41],[10.593,35.947],[10.94,35.699],[10.808,34.834],[10.15,34.331],[10.34,33.786],[10.857,33.769],[11.109,33.293],[11.489,33.137],[11.432,32.369],[10.945,32.082],[10.637,31.761],[9.95,31.376],[10.057,30.962],[9.97,30.539],[9.482,30.308]]]}},{"type":"Feature","properties":{"name":"Algeria","iso2":"DZ","region":"Africa"},"geometry":{"type":"Polygon","coordinates":[[[-8.684,27.396],[-8.665,27.589],[-8.666,27.656],[-8.674,28.841],[-7.059,29.579],[-6.061,29.732],[-5.242,30],[-4.86,30.501],[-3.69,30.897],[-3.647,31.637],[-3.069,31.724],[-2.617,32.094],[-1.308,32.263],[-1.125,32.652],[-1.388,32.864],[-1.733,33.92],[-1.793,34.528],[-2.17,35.168],[-1.209,35.715],[-0.127,35.889],[0.504,36.301],[1.467,36.606],[3.162,36.784],[4.816,36.865],[5.32,36.717],[6.262,37.111],[7.33,37.118],[7.737,36.886],[8.421,36.946],[8.218,36.433],[8.376,35.48],[8.141,34.655],[7.524,34.097],[7.613,33.344],[8.43,32.748],[8.439,32.506],[9.056,32.103],[9.482,30.308],[9.806,29.425],[9.86,28.96],[9.684,28.144],[9.756,27.688],[9.629,27.141],[9.716,26.512],[9.319,26.094],[9.911,25.365],[9.948,24.937],[10.304,24.379],[10.771,24.563],[11.561,24.098],[12,23.472],[8.573,21.566],[5.678,19.601],[4.267,19.155],[3.158,19.057],[3.147,19.694],[2.684,19.856],[2.061,20.142],[1.823,20.611],[-1.55,22.793],[-4.923,24.975],[-8.684,27.396]]]}},{"type":"Feature","properties":{"name":"Eritrea","iso2":"ER","region":"Africa"},"geometry":{"type":"Polygon","coordinates":[[[36.43,14.422],[36.323,14.822],[36.754,16.292],[36.853,16.957],[37.167,17.263],[37.904,17.428],[38.41,17.998],[38.991,16.841],[39.266,15.923],[39.814,15.436],[41.179,14.491],[41.735,13.921],[42.277,13.344],[42.59,13],[43.081,12.7],[42.78,12.455],[42.352,12.542],[42.01,12.866],[41.599,13.452],[41.155,13.773],[40.897,14.119],[40.026,14.52],[39.341,14.532],[39.099,14.741],[38.513,14.505],[37.906,14.959],[37.594,14.213],[36.43,14.422]]]}},{"type":"Feature","properties":{"name":"Morocco","iso2":"MA","region":"Africa"},"geometry":{"type":"Polygon","coordinates":[[[-2.17,35.168],[-1.793,34.528],[-1.733,33.92],[-1.388,32.864],[-1.125,32.652],[-1.308,32.263],[-2.617,32.094],[-3.069,31.724],[-3.647,31.637],[-3.69,30.897],[-4.86,30.501],[-5.242,30],[-6.061,29.732],[-7.059,29.579],[-8.674,28.841],[-8.666,27.656],[-8.818,27.656],[-8.795,27.121],[-9.413,27.088],[-9.735,26.861],[-10.189,26.861],[-10.551,26.991],[-11.393,26.883],[-11.718,26.104],[-12.031,26.031],[-12.501,24.77],[-13.891,23.691],[-14.221,22.31],[-14.631,21.861],[-14.751,21.501],[-17.003,21.421],[-17.02,21.422],[-16.973,21.886],[-16.589,22.158],[-16.262,22.679],[-16.326,23.018],[-15.983,23.723],[-15.426,24.359],[-15.089,24.52],[-14.825,25.104],[-14.801,25.636],[-14.44,26.254],[-13.774,26.619],[-13.14,27.64],[-13.122,27.654],[-12.619,28.038],[-11.689,28.149],[-10.901,28.832],[-10.4,29.099],[-9.565,29.934],[-9.815,31.178],[-9.435,32.038],[-9.301,32.565],[-8.657,33.24],[-7.654,33.697],[-6.913,34.11],[-6.244,35.146],[-5.93,35.76],[-5.194,35.755],[-4.591,35.331],[-3.64,35.4],[-2.604,35.179],[-2.17,35.168]]]}},{"type":"Feature","properties":{"name":"Egypt","iso2":"EG","region":"Africa"},"geometry":{"type":"Polygon","coordinates":[[[36.866,22],[32.9,22],[29.02,22],[25,22],[25,25.683],[25,29.239],[24.7,30.044],[24.958,30.662],[24.803,31.089],[25.165,31.569],[26.495,31.586],[27.458,31.321],[28.45,31.026],[28.914,30.87],[29.683,31.187],[30.095,31.473],[30.977,31.556],[31.688,31.43],[31.96,30.934],[32.192,31.26],[32.994,31.024],[33.773,30.967],[34.265,31.219],[34.265,31.219],[34.823,29.761],[34.923,29.501],[34.642,29.099],[34.427,28.344],[34.155,27.823],[33.921,27.649],[33.588,27.971],[33.137,28.418],[32.423,29.851],[32.32,29.76],[32.735,28.705],[33.349,27.7],[34.105,26.142],[34.474,25.599],[34.795,25.034],[35.692,23.927],[35.494,23.752],[35.526,23.102],[36.691,22.205],[36.866,22]]]}},{"type":"Feature","properties":{"name":"Libya","iso2":"LY","region":"Africa"},"geometry":{"type":"Polygon","coordinates":[[[25,22],[25,20.003],[23.85,20],[23.838,19.58],[19.849,21.495],[15.861,23.41],[14.851,22.863],[14.144,22.491],[13.581,23.041],[12,23.472],[11.561,24.098],[10.771,24.563],[10.304,24.379],[9.948,24.937],[9.911,25.365],[9.319,26.094],[9.716,26.512],[9.629,27.141],[9.756,27.688],[9.684,28.144],[9.86,28.96],[9.806,29.425],[9.482,30.308],[9.97,30.539],[10.057,30.962],[9.95,31.376],[10.637,31.761],[10.945,32.082],[11.432,32.369],[11.489,33.137],[12.663,32.793],[13.083,32.879],[13.919,32.712],[15.246,32.265],[15.714,31.376],[16.612,31.182],[18.021,30.764],[19.086,30.266],[19.574,30.526],[20.053,30.986],[19.82,31.752],[20.134,32.238],[20.855,32.707],[21.543,32.843],[22.896,32.639],[23.237,32.191],[23.609,32.187],[23.928,32.017],[24.921,31.899],[25.165,31.569],[24.803,31.089],[24.958,30.662],[24.7,30.044],[25,29.239],[25,25.683],[25,22]]]}},{"type":"Feature","properties":{"name":"Ethiopia","iso2":"ET","region":"Africa"},"geometry":{"type":"Polygon","coordinates":[[[47.789,8.003],[44.964,5.002],[43.661,4.958],[42.77,4.253],[42.129,4.234],[41.855,3.919],[41.172,3.919],[40.768,4.257],[39.855,3.839],[39.559,3.422],[38.893,3.501],[38.671,3.616],[38.437,3.589],[38.121,3.599],[36.855,4.448],[36.159,4.448],[35.817,4.777],[35.817,5.338],[35.298,5.506],[34.707,6.594],[34.25,6.826],[34.075,7.226],[33.568,7.713],[32.954,7.785],[33.295,8.355],[33.826,8.379],[33.975,8.685],[33.962,9.584],[34.257,10.63],[34.731,10.91],[34.832,11.319],[35.26,12.083],[35.864,12.578],[36.27,13.563],[36.43,14.422],[37.594,14.213],[37.906,14.959],[38.513,14.505],[39.099,14.741],[39.341,14.532],[40.026,14.52],[40.897,14.119],[41.155,13.773],[41.599,13.452],[42.01,12.866],[42.352,12.542],[42,12.1],[41.662,11.631],[41.74,11.355],[41.756,11.051],[42.314,11.034],[42.555,11.105],[42.777,10.927],[42.559,10.573],[42.928,10.022],[43.297,9.54],[43.679,9.184],[46.948,7.997],[47.789,8.003]]]}},{"type":"Feature","properties":{"name":"Djibouti","iso2":"DJ","region":"Africa"},"geometry":{"type":"Polygon","coordinates":[[[42.352,12.542],[42.78,12.455],[43.081,12.7],[43.318,12.39],[43.286,11.975],[42.716,11.736],[43.145,11.462],[42.777,10.927],[42.555,11.105],[42.314,11.034],[41.756,11.051],[41.74,11.355],[41.662,11.631],[42,12.1],[42.352,12.542]]]}},{"type":"Feature","properties":{"name":"Somaliland","iso2":"-99","region":"Africa"},"geometry":{"type":"Polygon","coordinates":[[[48.948,11.411],[48.948,11.411],[48.942,11.394],[48.938,10.982],[48.938,9.974],[48.938,9.452],[48.487,8.838],[47.789,8.003],[46.948,7.997],[43.679,9.184],[43.297,9.54],[42.928,10.022],[42.559,10.573],[42.777,10.927],[43.145,11.462],[43.471,11.278],[43.667,10.864],[44.118,10.446],[44.614,10.442],[45.557,10.698],[46.645,10.817],[47.526,11.127],[48.022,11.193],[48.379,11.375],[48.948,11.411],[48.948,11.411]]]}},{"type":"Feature","properties":{"name":"Uganda","iso2":"UG","region":"Africa"},"geometry":{"type":"Polygon","coordinates":[[[33.904,-0.95],[31.866,-1.027],[30.77,-1.015],[30.419,-1.135],[29.822,-1.443],[29.579,-1.341],[29.588,-0.587],[29.82,-0.205],[29.876,0.597],[30.086,1.062],[30.469,1.584],[30.853,1.849],[31.174,2.204],[30.773,2.34],[30.834,3.509],[30.834,3.509],[31.246,3.782],[31.881,3.558],[32.686,3.792],[33.39,3.79],[34.005,4.25],[34.479,3.556],[34.596,3.054],[35.036,1.906],[34.672,1.177],[34.18,0.515],[33.894,0.11],[33.904,-0.95]]]}},{"type":"Feature","properties":{"name":"Rwanda","iso2":"RW","region":"Africa"},"geometry":{"type":"Polygon","coordinates":[[[30.419,-1.135],[30.816,-1.699],[30.758,-2.287],[30.47,-2.414],[30.47,-2.414],[29.938,-2.348],[29.632,-2.918],[29.025,-2.839],[29.117,-2.292],[29.255,-2.215],[29.292,-1.62],[29.579,-1.341],[29.822,-1.443],[30.419,-1.135]]]}},{"type":"Feature","properties":{"name":"South Sudan","iso2":"SS","region":"Africa"},"geometry":{"type":"Polygon","coordinates":[[[30.834,3.509],[29.954,4.174],[29.716,4.601],[29.159,4.389],[28.697,4.455],[28.429,4.287],[27.98,4.408],[27.374,5.234],[27.213,5.551],[26.466,5.947],[26.213,6.547],[25.797,6.979],[25.124,7.5],[25.115,7.825],[24.567,8.229],[23.887,8.62],[24.194,8.729],[24.537,8.918],[24.795,9.81],[25.07,10.274],[25.791,10.411],[25.962,10.136],[26.477,9.553],[26.752,9.467],[27.113,9.639],[27.834,9.604],[27.971,9.398],[28.967,9.398],[29.001,9.604],[29.516,9.793],[29.619,10.085],[29.997,10.291],[30.838,9.707],[31.353,9.81],[31.851,10.531],[32.4,11.081],[32.314,11.681],[32.074,11.973],[32.675,12.025],[32.743,12.248],[33.207,12.179],[33.087,11.441],[33.207,10.72],[33.722,10.325],[33.842,9.982],[33.825,9.484],[33.963,9.464],[33.975,8.685],[33.826,8.379],[33.295,8.355],[32.954,7.785],[33.568,7.713],[34.075,7.226],[34.25,6.826],[34.707,6.594],[35.298,5.506],[34.62,4.847],[34.005,4.25],[33.39,3.79],[32.686,3.792],[31.881,3.558],[31.246,3.782],[30.834,3.509]]]}}]}
